CCSDS_OMM_VERS = 2.0
CREATION_DATE  = 
ORIGINATOR     = 

OBJECT_NAME    = HULIANWANG DIGUI 12D
OBJECT_ID      = 2025-231D
CENTER_NAME    = EARTH
REF_FRAME      = TEME
TIME_SYSTEM    = UTC
MEAN_ELEMENT_THEORY = SGP/SGP4

EPOCH          = 2025-10-31T16:24:32.927616
MEAN_MOTION    = 14.04583505
ECCENTRICITY   = .0006699
INCLINATION    = 49.9999
RA_OF_ASC_NODE = 294.0757
ARG_OF_PERICENTER = 318.5983
MEAN_ANOMALY   = 41.4414

EPHEMERIS_TYPE = 0
CLASSIFICATION_TYPE = U
NORAD_CAT_ID   = 65998
ELEMENT_SET_NO = 999
REV_AT_EPOCH   = 220
BSTAR          = .14583E-3
MEAN_MOTION_DOT = .83E-6
MEAN_MOTION_DDOT = 0

CCSDS_OMM_VERS = 2.0
CREATION_DATE  = 
ORIGINATOR     = 

OBJECT_NAME    = HULIANWANG DIGUI 12E
OBJECT_ID      = 2025-231E
CENTER_NAME    = EARTH
REF_FRAME      = TEME
TIME_SYSTEM    = UTC
MEAN_ELEMENT_THEORY = SGP/SGP4

EPOCH          = 2025-10-31T16:26:36.596256
MEAN_MOTION    = 14.03842817
ECCENTRICITY   = .0008262
INCLINATION    = 50.0017
RA_OF_ASC_NODE = 294.0870
ARG_OF_PERICENTER = 328.2445
MEAN_ANOMALY   = 31.7960

EPHEMERIS_TYPE = 0
CLASSIFICATION_TYPE = U
NORAD_CAT_ID   = 65999
ELEMENT_SET_NO = 999
REV_AT_EPOCH   = 220
BSTAR          = .13597E-3
MEAN_MOTION_DOT = .64E-6
MEAN_MOTION_DDOT = 0

CCSDS_OMM_VERS = 2.0
CREATION_DATE  = 
ORIGINATOR     = 

OBJECT_NAME    = HULIANWANG DIGUI 12F
OBJECT_ID      = 2025-231F
CENTER_NAME    = EARTH
REF_FRAME      = TEME
TIME_SYSTEM    = UTC
MEAN_ELEMENT_THEORY = SGP/SGP4

EPOCH          = 2025-10-31T16:19:56.376768
MEAN_MOTION    = 14.04997322
ECCENTRICITY   = .0005539
INCLINATION    = 50.0060
RA_OF_ASC_NODE = 294.0705
ARG_OF_PERICENTER = 323.4069
MEAN_ANOMALY   = 36.6457

EPHEMERIS_TYPE = 0
CLASSIFICATION_TYPE = U
NORAD_CAT_ID   = 66000
ELEMENT_SET_NO = 999
REV_AT_EPOCH   = 220
BSTAR          = .13948E-3
MEAN_MOTION_DOT = .74E-6
MEAN_MOTION_DDOT = 0

CCSDS_OMM_VERS = 2.0
CREATION_DATE  = 
ORIGINATOR     = 

OBJECT_NAME    = HULIANWANG DIGUI 12G
OBJECT_ID      = 2025-231G
CENTER_NAME    = EARTH
REF_FRAME      = TEME
TIME_SYSTEM    = UTC
MEAN_ELEMENT_THEORY = SGP/SGP4

EPOCH          = 2025-10-31T16:22:14.018880
MEAN_MOTION    = 14.03864655
ECCENTRICITY   = .0006678
INCLINATION    = 50.0026
RA_OF_ASC_NODE = 294.0718
ARG_OF_PERICENTER = 336.1100
MEAN_ANOMALY   = 23.9494

EPHEMERIS_TYPE = 0
CLASSIFICATION_TYPE = U
NORAD_CAT_ID   = 66001
ELEMENT_SET_NO = 999
REV_AT_EPOCH   = 220
BSTAR          = .13176E-3
MEAN_MOTION_DOT = .58E-6
MEAN_MOTION_DDOT = 0

CCSDS_OMM_VERS = 2.0
CREATION_DATE  = 
ORIGINATOR     = 

OBJECT_NAME    = HULIANWANG DIGUI 12H
OBJECT_ID      = 2025-231H
CENTER_NAME    = EARTH
REF_FRAME      = TEME
TIME_SYSTEM    = UTC
MEAN_ELEMENT_THEORY = SGP/SGP4

EPOCH          = 2025-10-31T16:23:54.688704
MEAN_MOTION    = 14.03810010
ECCENTRICITY   = .0007713
INCLINATION    = 50.0065
RA_OF_ASC_NODE = 294.0869
ARG_OF_PERICENTER = 326.9267
MEAN_ANOMALY   = 33.1154

EPHEMERIS_TYPE = 0
CLASSIFICATION_TYPE = U
NORAD_CAT_ID   = 66002
ELEMENT_SET_NO = 999
REV_AT_EPOCH   = 220
BSTAR          = .28417E-3
MEAN_MOTION_DOT = .299E-5
MEAN_MOTION_DDOT = 0

CCSDS_OMM_VERS = 2.0
CREATION_DATE  = 
ORIGINATOR     = 

OBJECT_NAME    = HULIANWANG DIGUI 12J
OBJECT_ID      = 2025-231J
CENTER_NAME    = EARTH
REF_FRAME      = TEME
TIME_SYSTEM    = UTC
MEAN_ELEMENT_THEORY = SGP/SGP4

EPOCH          = 2025-10-31T16:17:49.900128
MEAN_MOTION    = 14.03904948
ECCENTRICITY   = .0005507
INCLINATION    = 50.0038
RA_OF_ASC_NODE = 294.0592
ARG_OF_PERICENTER = 325.3424
MEAN_ANOMALY   = 34.7121

EPHEMERIS_TYPE = 0
CLASSIFICATION_TYPE = U
NORAD_CAT_ID   = 66003
ELEMENT_SET_NO = 999
REV_AT_EPOCH   = 220
BSTAR          = .17545E-3
MEAN_MOTION_DOT = .127E-5
MEAN_MOTION_DDOT = 0

CCSDS_OMM_VERS = 2.0
CREATION_DATE  = 
ORIGINATOR     = 

OBJECT_NAME    = CZ-8A R/B
OBJECT_ID      = 2025-231K
CENTER_NAME    = EARTH
REF_FRAME      = TEME
TIME_SYSTEM    = UTC
MEAN_ELEMENT_THEORY = SGP/SGP4

EPOCH          = 2025-10-31T16:38:21.655680
MEAN_MOTION    = 14.30032416
ECCENTRICITY   = .0116698
INCLINATION    = 50.0036
RA_OF_ASC_NODE = 291.3732
ARG_OF_PERICENTER = 139.0901
MEAN_ANOMALY   = 221.8844

EPHEMERIS_TYPE = 0
CLASSIFICATION_TYPE = U
NORAD_CAT_ID   = 66004
ELEMENT_SET_NO = 999
REV_AT_EPOCH   = 224
BSTAR          = .68295E-4
MEAN_MOTION_DOT = .26E-6
MEAN_MOTION_DDOT = 0

CCSDS_OMM_VERS = 2.0
CREATION_DATE  = 
ORIGINATOR     = 

OBJECT_NAME    = STARLINK-34849
OBJECT_ID      = 2025-232A
CENTER_NAME    = EARTH
REF_FRAME      = TEME
TIME_SYSTEM    = UTC
MEAN_ELEMENT_THEORY = SGP/SGP4

EPOCH          = 2025-10-31T06:00:02.000160
MEAN_MOTION    = 15.69049159
ECCENTRICITY   = .00012261
INCLINATION    = 53.1592
RA_OF_ASC_NODE = 348.6520
ARG_OF_PERICENTER = 76.6598
MEAN_ANOMALY   = 100.1992

EPHEMERIS_TYPE = 0
CLASSIFICATION_TYPE = U
NORAD_CAT_ID   = 66005
ELEMENT_SET_NO = 999
REV_AT_EPOCH   = 271
BSTAR          = -.18176628E-1
MEAN_MOTION_DOT = -.190171E-1
MEAN_MOTION_DDOT = 0

CCSDS_OMM_VERS = 2.0
CREATION_DATE  = 
ORIGINATOR     = 

OBJECT_NAME    = STARLINK-35336
OBJECT_ID      = 2025-232B
CENTER_NAME    = EARTH
REF_FRAME      = TEME
TIME_SYSTEM    = UTC
MEAN_ELEMENT_THEORY = SGP/SGP4

EPOCH          = 2025-10-31T20:00:03.000384
MEAN_MOTION    = 15.66698455
ECCENTRICITY   = .000127
INCLINATION    = 53.1600
RA_OF_ASC_NODE = 345.7794
ARG_OF_PERICENTER = 83.7452
MEAN_ANOMALY   = 149.4434

EPHEMERIS_TYPE = 0
CLASSIFICATION_TYPE = U
NORAD_CAT_ID   = 66006
ELEMENT_SET_NO = 999
REV_AT_EPOCH   = 281
BSTAR          = -.21066E-1
MEAN_MOTION_DOT = -.1988556E-1
MEAN_MOTION_DDOT = 0

CCSDS_OMM_VERS = 2.0
CREATION_DATE  = 
ORIGINATOR     = 

OBJECT_NAME    = STARLINK-35196
OBJECT_ID      = 2025-232C
CENTER_NAME    = EARTH
REF_FRAME      = TEME
TIME_SYSTEM    = UTC
MEAN_ELEMENT_THEORY = SGP/SGP4

EPOCH          = 2025-10-31T20:00:03.000384
MEAN_MOTION    = 15.66698688
ECCENTRICITY   = .0001279
INCLINATION    = 53.1599
RA_OF_ASC_NODE = 345.7760
ARG_OF_PERICENTER = 85.1301
MEAN_ANOMALY   = 149.9754

EPHEMERIS_TYPE = 0
CLASSIFICATION_TYPE = U
NORAD_CAT_ID   = 66007
ELEMENT_SET_NO = 999
REV_AT_EPOCH   = 281
BSTAR          = -.21069E-1
MEAN_MOTION_DOT = -.1988832E-1
MEAN_MOTION_DDOT = 0

CCSDS_OMM_VERS = 2.0
CREATION_DATE  = 
ORIGINATOR     = 

OBJECT_NAME    = STARLINK-35236
OBJECT_ID      = 2025-232D
CENTER_NAME    = EARTH
REF_FRAME      = TEME
TIME_SYSTEM    = UTC
MEAN_ELEMENT_THEORY = SGP/SGP4

EPOCH          = 2025-10-31T20:00:03.000384
MEAN_MOTION    = 15.66698269
ECCENTRICITY   = .0001183
INCLINATION    = 53.1598
RA_OF_ASC_NODE = 345.7713
ARG_OF_PERICENTER = 82.4380
MEAN_ANOMALY   = 154.5839

EPHEMERIS_TYPE = 0
CLASSIFICATION_TYPE = U
NORAD_CAT_ID   = 66008
ELEMENT_SET_NO = 999
REV_AT_EPOCH   = 281
BSTAR          = -.21043E-1
MEAN_MOTION_DOT = -.1986543E-1
MEAN_MOTION_DDOT = 0

CCSDS_OMM_VERS = 2.0
CREATION_DATE  = 
ORIGINATOR     = 

OBJECT_NAME    = STARLINK-35276
OBJECT_ID      = 2025-232E
CENTER_NAME    = EARTH
REF_FRAME      = TEME
TIME_SYSTEM    = UTC
MEAN_ELEMENT_THEORY = SGP/SGP4

EPOCH          = 2025-10-31T20:00:03.000384
MEAN_MOTION    = 15.66697653
ECCENTRICITY   = .0001158
INCLINATION    = 53.1595
RA_OF_ASC_NODE = 345.7677
ARG_OF_PERICENTER = 86.2498
MEAN_ANOMALY   = 152.6902

EPHEMERIS_TYPE = 0
CLASSIFICATION_TYPE = U
NORAD_CAT_ID   = 66009
ELEMENT_SET_NO = 999
REV_AT_EPOCH   = 281
BSTAR          = -.21039E-1
MEAN_MOTION_DOT = -.1986174E-1
MEAN_MOTION_DDOT = 0

