HULIANWANG DIGUI 12D    
1 65998U 25231D   25304.68371444  .00000083  00000+0  14583-3 0  9995
2 65998  49.9999 294.0757 0006699 318.5983  41.4414 14.04583505  2206
HULIANWANG DIGUI 12E    
1 65999U 25231E   25304.68514579  .00000064  00000+0  13597-3 0  9997
2 65999  50.0017 294.0870 0008262 328.2445  31.7960 14.03842817  2207
HULIANWANG DIGUI 12F    
1 66000U 25231F   25304.68051362  .00000074  00000+0  13948-3 0  9998
2 66000  50.0060 294.0705 0005539 323.4069  36.6457 14.04997322  2207
HULIANWANG DIGUI 12G    
1 66001U 25231G   25304.68210670  .00000058  00000+0  13176-3 0  9993
2 66001  50.0026 294.0718 0006678 336.1100  23.9494 14.03864655  2207
HULIANWANG DIGUI 12H    
1 66002U 25231H   25304.68327186  .00000299  00000+0  28417-3 0  9996
2 66002  50.0065 294.0869 0007713 326.9267  33.1154 14.03810010  2202
HULIANWANG DIGUI 12J    
1 66003U 25231J   25304.67904977  .00000127  00000+0  17545-3 0  9995
2 66003  50.0038 294.0592 0005507 325.3424  34.7121 14.03904948  2208
CZ-8A R/B               
1 66004U 25231K   25304.69330620  .00000026  00000+0  68295-4 0  9993
2 66004  50.0036 291.3732 0116698 139.0901 221.8844 14.30032416  2244
STARLINK-34849          
1 66005U 25232A   25304.25002315 -.01901710  00000+0 -18177-1 0  9998
2 66005  53.1592 348.6520 0001226  76.6598 100.1992 15.69049159  2715
STARLINK-35336          
1 66006U 25232B   25304.83336806 -.01988556  00000+0 -21066-1 0  9992
2 66006  53.1600 345.7794 0001270  83.7452 149.4434 15.66698455  2818
STARLINK-35196          
1 66007U 25232C   25304.83336806 -.01988832  00000+0 -21069-1 0  9993
2 66007  53.1599 345.7760 0001279  85.1301 149.9754 15.66698688  2815
STARLINK-35236          
1 66008U 25232D   25304.83336806 -.01986543  00000+0 -21043-1 0  9993
2 66008  53.1598 345.7713 0001183  82.4380 154.5839 15.66698269  2815
STARLINK-35276          
1 66009U 25232E   25304.83336806 -.01986174  00000+0 -21039-1 0  9999
2 66009  53.1595 345.7677 0001158  86.2498 152.6902 15.66697653  2812
